$$SOE
2461302.500000000, A.D. 2026-Sep-19 00:00:00.0000, 6.448884752633075E+07, -2.427383308688650E+08, -8.804212122992155E+07,
2461309.500000000, A.D. 2026-Sep-26 00:00:00.0000, 7.776402799038871E+07, -2.386984173959910E+08, -8.691378861153561E+07,
2461316.500000000, A.D. 2026-Oct-03 00:00:00.0000, 9.083790789040223E+07, -2.340406948714661E+08, -8.556049130653377E+07,
2461323.500000000, A.D. 2026-Oct-10 00:00:00.0000, 1.036754912908191E+08, -2.287742377850845E+08, -8.398464142975679E+07,
2461330.500000000, A.D. 2026-Oct-17 00:00:00.0000, 1.162421923230423E+08, -2.229101069770575E+08, -8.218936877183978E+07,
2461337.500000000, A.D. 2026-Oct-24 00:00:00.0000, 1.285039873552699E+08, -2.164613356784102E+08, -8.017851939719966E+07,
2461344.500000000, A.D. 2026-Oct-31 00:00:00.0000, 1.404275674731647E+08, -2.094429029966818E+08, -7.795664973256740E+07,
2461351.500000000, A.D. 2026-Nov-07 00:00:00.0000, 1.519804901664819E+08, -2.018716946354043E+08, -7.552901609135471E+07,
2461358.500000000, A.D. 2026-Nov-14 00:00:00.0000, 1.631313289414082E+08, -1.937664500059302E+08, -7.290155956333059E+07,
2461365.500000000, A.D. 2026-Nov-21 00:00:00.0000, 1.738498175534767E+08, -1.851476952729804E+08, -7.008088609023595E+07,
2461372.500000000, A.D. 2026-Nov-28 00:00:00.0000, 1.841069863895359E+08, -1.760376657364786E+08, -6.707424198461159E+07,
2461379.500000000, A.D. 2026-Dec-05 00:00:00.0000, 1.938752931997874E+08, -1.664602187739722E+08, -6.388948544595467E+07,
2461386.500000000, A.D. 2026-Dec-12 00:00:00.0000, 2.031287470109132E+08, -1.564407349773328E+08, -6.053505407042001E+07,
2461393.500000000, A.D. 2026-Dec-19 00:00:00.0000, 2.118430221044103E+08, -1.460060083845859E+08, -5.701992847557219E+07,
2461400.500000000, A.D. 2026-Dec-26 00:00:00.0000, 2.199955608170459E+08, -1.351841277231497E+08, -5.335359244573332E+07,
2461407.500000000, A.D. 2027-Jan-02 00:00:00.0000, 2.275656644892242E+08, -1.240043500247343E+08, -4.954599003321537E+07,
2461414.500000000, A.D. 2027-Jan-09 00:00:00.0000, 2.345345718971635E+08, -1.124969678605312E+08, -4.560748005856217E+07,
2461421.500000000, A.D. 2027-Jan-16 00:00:00.0000, 2.408855246056264E+08, -1.006931715324593E+08, -4.154878847760510E+07,
2461428.500000000, A.D. 2027-Jan-23 00:00:00.0000, 2.466038188770472E+08, -8.862490765584177E+07, -3.738095910954756E+07,
2461435.500000000, A.D. 2027-Jan-30 00:00:00.0000, 2.516768440988893E+08, -7.632473559766938E+07, -3.311530324436382E+07,
2461442.500000000, A.D. 2027-Feb-06 00:00:00.0000, 2.560941081159402E+08, -6.382568282892611E+07, -2.876334863984849E+07,
2461449.500000000, A.D. 2027-Feb-13 00:00:00.0000, 2.598472491777458E+08, -5.116109933707781E+07, -2.433678826310712E+07,
2461456.500000000, A.D. 2027-Feb-20 00:00:00.0000, 2.629300324934290E+08, -3.836451322125314E+07, -1.984742910656966E+07,
2461463.500000000, A.D. 2027-Feb-27 00:00:00.0000, 2.653383332840529E+08, -2.546949193782238E+07, -1.530714192334935E+07,
2461470.500000000, A.D. 2027-Mar-06 00:00:00.0000, 2.670701099834136E+08, -1.250950841687881E+07, -1.072781242440923E+07,
2461477.500000000, A.D. 2027-Mar-13 00:00:00.0000, 2.681253667585021E+08, 4.821889680167502E+05, -6.121294011404258E+06,
2461484.500000000, A.D. 2027-Mar-20 00:00:00.0000, 2.685061051014297E+08, 1.347270082864838E+07, -1.499362357006614E+06,
2461491.500000000, A.D. 2027-Mar-27 00:00:00.0000, 2.682162656575640E+08, 2.642959425735646E+07, 3.126327801912818E+06,
2461498.500000000, A.D. 2027-Apr-03 00:00:00.0000, 2.672616615152445E+08, 3.932101269418448E+07, 7.744283380977571E+06,
2461505.500000000, A.D. 2027-Apr-10 00:00:00.0000, 2.656499040796404E+08, 5.211577768022938E+07, 1.234321096447051E+07,
2461512.500000000, A.D. 2027-Apr-17 00:00:00.0000, 2.633903226329189E+08, 6.478348211051997E+07, 1.691205195915865E+07,
2461519.500000000, A.D. 2027-Apr-24 00:00:00.0000, 2.604938787411254E+08, 7.729457468373951E+07, 2.144001476212724E+07,
2461526.500000000, A.D. 2027-May-01 00:00:00.0000, 2.569730768724301E+08, 8.962043545711407E+07, 2.591660385123693E+07,
2461533.500000000, A.D. 2027-May-08 00:00:00.0000, 2.528418725545895E+08, 1.017334432436710E+08, 3.033164580441617E+07,
2461540.500000000, A.D. 2027-May-15 00:00:00.0000, 2.481155775363627E+08, 1.136070359126817E+08, 3.467531247467539E+07,
2461547.500000000, A.D. 2027-May-22 00:00:00.0000, 2.428107613256507E+08, 1.252157612148364E+08, 3.893814130849881E+07,
2461554.500000000, A.D. 2027-May-29 00:00:00.0000, 2.369451533371897E+08, 1.365353169292658E+08, 4.311105246544177E+07,
2461561.500000000, A.D. 2027-Jun-05 00:00:00.0000, 2.305375473074172E+08, 1.475425837864771E+08, 4.718536301667283E+07,
2461568.500000000, A.D. 2027-Jun-12 00:00:00.0000, 2.236077066562529E+08, 1.582156519812321E+08, 5.115279856030524E+07,
2461575.500000000, A.D. 2027-Jun-19 00:00:00.0000, 2.161762710664403E+08, 1.685338407734057E+08, 5.500550233633846E+07,
2461582.500000000, A.D. 2027-Jun-26 00:00:00.0000, 2.082646650802495E+08, 1.784777114011049E+08, 5.873604193831014E+07,
2461589.500000000, A.D. 2027-Jul-03 00:00:00.0000, 1.998950093032122E+08, 1.880290738391506E+08, 6.233741377811917E+07,
2461596.500000000, A.D. 2027-Jul-10 00:00:00.0000, 1.910900346521856E+08, 1.971709879451503E+08, 6.580304548844803E+07,
2461603.500000000, A.D. 2027-Jul-17 00:00:00.0000, 1.818730000158929E+08, 2.058877594751829E+08, 6.912679644699886E+07,
2461610.500000000, A.D. 2027-Jul-24 00:00:00.0000, 1.722676137386704E+08, 2.141649314133651E+08, 7.230295658696006E+07,
2461617.500000000, A.D. 2027-Jul-31 00:00:00.0000, 1.622979595219985E+08, 2.219892713493161E+08, 7.532624365222871E+07,
2461624.500000000, A.D. 2027-Aug-07 00:00:00.0000, 1.519884266678753E+08, 2.293487565373996E+08, 7.819179917936470E+07,
2461631.500000000, A.D. 2027-Aug-14 00:00:00.0000, 1.413636424212840E+08, 2.362325568381830E+08, 8.089518355148029E+07,
2461638.500000000, A.D. 2027-Aug-21 00:00:00.0000, 1.304484070332703E+08, 2.426310126312203E+08, 8.343236994936989E+07,
2461645.500000000, A.D. 2027-Aug-28 00:00:00.0000, 1.192676349658453E+08, 2.485356093396204E+08, 8.579973714356127E+07,
2461652.500000000, A.D. 2027-Sep-04 00:00:00.0000, 1.078463010070636E+08, 2.539389514567704E+08, 8.799406157939550E+07,
2461659.500000000, A.D. 2027-Sep-11 00:00:00.0000, 9.620938980781420E+07, 2.588347357752166E+08, 9.001250895763317E+07,
2461666.500000000, A.D. 2027-Sep-18 00:00:00.0000, 8.438184885718836E+07, 2.632177235053465E+08, 9.185262536758775E+07,
2461673.500000000, A.D. 2027-Sep-25 00:00:00.0000, 7.238854498959349E+07, 2.670837115152227E+08, 9.351232805849645E+07,
2461680.500000000, A.D. 2027-Oct-02 00:00:00.0000, 6.025422434579807E+07, 2.704295029987655E+08, 9.498989594743913E+07,
2461687.500000000, A.D. 2027-Oct-09 00:00:00.0000, 4.800347564373280E+07, 2.732528778189486E+08, 9.628395995441629E+07,
2461694.500000000, A.D. 2027-Oct-16 00:00:00.0000, 3.566069664506155E+07, 2.755525626948693E+08, 9.739349323777428E+07,
2461701.500000000, A.D. 2027-Oct-23 00:00:00.0000, 2.325006389227099E+07, 2.773282014248579E+08, 9.831780138021334E+07,
2461708.500000000, A.D. 2027-Oct-30 00:00:00.0000, 1.079550590035109E+07, 2.785803259315875E+08, 9.905651260844122E+07,
2461715.500000000, A.D. 2027-Nov-06 00:00:00.0000, -1.679321549004917E+06, 2.793103294136988E+08, 9.960956830707677E+07,
2461722.500000000, A.D. 2027-Nov-13 00:00:00.0000, -1.415106017935940E+07, 2.795204396503292E+08, 9.997721388510138E+07,
2461729.500000000, A.D. 2027-Nov-20 00:00:00.0000, -2.659667135520447E+07, 2.792136903677735E+08, 1.001599895856821E+08,
2461736.500000000, A.D. 2027-Nov-27 00:00:00.0000, -3.899345415998071E+07, 2.783938937345846E+08, 1.001587213786701E+08,
2461743.500000000, A.D. 2027-Dec-04 00:00:00.0000, -5.131906161606215E+07, 2.770656149789668E+08, 9.997451223047583E+07,
2461750.500000000, A.D. 2027-Dec-11 00:00:00.0000, -6.355151577423919E+07, 2.752341482173743E+08, 9.960873374521101E+07,
2461757.500000000, A.D. 2027-Dec-18 00:00:00.0000, -7.566922157290503E+07, 2.729054931967508E+08, 9.906301814353038E+07,
2461764.500000000, A.D. 2027-Dec-25 00:00:00.0000, -8.765097948296110E+07, 2.700863329793817E+08, 9.833925058086808E+07,
2461771.500000000, A.D. 2028-Jan-01 00:00:00.0000, -9.947599705729847E+07, 2.667840126047922E+08, 9.743956181336111E+07,
$$EOE